CCSDS_OMM_VERS = 2.0
CREATION_DATE  = 
ORIGINATOR     = 

OBJECT_NAME    = STARLINK-36436
OBJECT_ID      = 2026-020K
CENTER_NAME    = EARTH
REF_FRAME      = TEME
TIME_SYSTEM    = UTC
MEAN_ELEMENT_THEORY = SGP/SGP4

EPOCH          = 2026-02-28T09:27:12.377664
MEAN_MOTION    = 15.76579692
ECCENTRICITY   = .0003012
INCLINATION    = 42.9988
RA_OF_ASC_NODE = 198.2512
ARG_OF_PERICENTER = 254.9112
MEAN_ANOMALY   = 105.1425

EPHEMERIS_TYPE = 0
CLASSIFICATION_TYPE = U
NORAD_CAT_ID   = 67626
ELEMENT_SET_NO = 999
REV_AT_EPOCH   = 462
BSTAR          = .22801E-2
MEAN_MOTION_DOT = .392209E-2
MEAN_MOTION_DDOT = 0

CCSDS_OMM_VERS = 2.0
CREATION_DATE  = 
ORIGINATOR     = 

OBJECT_NAME    = STARLINK-36502
OBJECT_ID      = 2026-020L
CENTER_NAME    = EARTH
REF_FRAME      = TEME
TIME_SYSTEM    = UTC
MEAN_ELEMENT_THEORY = SGP/SGP4

EPOCH          = 2026-02-28T12:13:55.352352
MEAN_MOTION    = 15.76365404
ECCENTRICITY   = .0006143
INCLINATION    = 43.0005
RA_OF_ASC_NODE = 197.3918
ARG_OF_PERICENTER = 295.3258
MEAN_ANOMALY   = 64.6975

EPHEMERIS_TYPE = 0
CLASSIFICATION_TYPE = U
NORAD_CAT_ID   = 67627
ELEMENT_SET_NO = 999
REV_AT_EPOCH   = 464
BSTAR          = .17931E-2
MEAN_MOTION_DOT = .302349E-2
MEAN_MOTION_DDOT = 0

CCSDS_OMM_VERS = 2.0
CREATION_DATE  = 
ORIGINATOR     = 

OBJECT_NAME    = STARLINK-36532
OBJECT_ID      = 2026-020M
CENTER_NAME    = EARTH
REF_FRAME      = TEME
TIME_SYSTEM    = UTC
MEAN_ELEMENT_THEORY = SGP/SGP4

EPOCH          = 2026-02-28T10:39:31.810752
MEAN_MOTION    = 15.76593356
ECCENTRICITY   = .000862
INCLINATION    = 42.9998
RA_OF_ASC_NODE = 197.7591
ARG_OF_PERICENTER = 300.7110
MEAN_ANOMALY   = 59.2910

EPHEMERIS_TYPE = 0
CLASSIFICATION_TYPE = U
NORAD_CAT_ID   = 67628
ELEMENT_SET_NO = 999
REV_AT_EPOCH   = 463
BSTAR          = .17767E-2
MEAN_MOTION_DOT = .302938E-2
MEAN_MOTION_DDOT = 0

CCSDS_OMM_VERS = 2.0
CREATION_DATE  = 
ORIGINATOR     = 

OBJECT_NAME    = STARLINK-36367
OBJECT_ID      = 2026-020N
CENTER_NAME    = EARTH
REF_FRAME      = TEME
TIME_SYSTEM    = UTC
MEAN_ELEMENT_THEORY = SGP/SGP4

EPOCH          = 2026-02-28T09:42:58.208832
MEAN_MOTION    = 15.76452096
ECCENTRICITY   = .0001973
INCLINATION    = 42.9990
RA_OF_ASC_NODE = 198.3406
ARG_OF_PERICENTER = 252.5073
MEAN_ANOMALY   = 107.5581

EPHEMERIS_TYPE = 0
CLASSIFICATION_TYPE = U
NORAD_CAT_ID   = 67629
ELEMENT_SET_NO = 999
REV_AT_EPOCH   = 462
BSTAR          = .18978E-2
MEAN_MOTION_DOT = .321801E-2
MEAN_MOTION_DDOT = 0

CCSDS_OMM_VERS = 2.0
CREATION_DATE  = 
ORIGINATOR     = 

OBJECT_NAME    = STARLINK-36416
OBJECT_ID      = 2026-020P
CENTER_NAME    = EARTH
REF_FRAME      = TEME
TIME_SYSTEM    = UTC
MEAN_ELEMENT_THEORY = SGP/SGP4

EPOCH          = 2026-02-28T10:05:02.583456
MEAN_MOTION    = 15.76464790
ECCENTRICITY   = .0000925
INCLINATION    = 42.9988
RA_OF_ASC_NODE = 198.4640
ARG_OF_PERICENTER = 260.4649
MEAN_ANOMALY   = 99.6116

EPHEMERIS_TYPE = 0
CLASSIFICATION_TYPE = U
NORAD_CAT_ID   = 67630
ELEMENT_SET_NO = 999
REV_AT_EPOCH   = 462
BSTAR          = .19907E-2
MEAN_MOTION_DOT = .338446E-2
MEAN_MOTION_DDOT = 0

CCSDS_OMM_VERS = 2.0
CREATION_DATE  = 
ORIGINATOR     = 

OBJECT_NAME    = STARLINK-36527
OBJECT_ID      = 2026-020Q
CENTER_NAME    = EARTH
REF_FRAME      = TEME
TIME_SYSTEM    = UTC
MEAN_ELEMENT_THEORY = SGP/SGP4

EPOCH          = 2026-02-28T12:00:00.998784
MEAN_MOTION    = 15.76347286
ECCENTRICITY   = .0001785
INCLINATION    = 42.9998
RA_OF_ASC_NODE = 197.3273
ARG_OF_PERICENTER = 255.7489
MEAN_ANOMALY   = 99.2246

EPHEMERIS_TYPE = 0
CLASSIFICATION_TYPE = U
NORAD_CAT_ID   = 67631
ELEMENT_SET_NO = 999
REV_AT_EPOCH   = 591
BSTAR          = .22189E-3
MEAN_MOTION_DOT = .35767E-3
MEAN_MOTION_DDOT = 0

CCSDS_OMM_VERS = 2.0
CREATION_DATE  = 
ORIGINATOR     = 

OBJECT_NAME    = STARLINK-36633
OBJECT_ID      = 2026-020R
CENTER_NAME    = EARTH
REF_FRAME      = TEME
TIME_SYSTEM    = UTC
MEAN_ELEMENT_THEORY = SGP/SGP4

EPOCH          = 2026-02-28T12:23:22.646112
MEAN_MOTION    = 15.76359623
ECCENTRICITY   = .0004837
INCLINATION    = 43.0001
RA_OF_ASC_NODE = 197.4456
ARG_OF_PERICENTER = 299.1121
MEAN_ANOMALY   = 60.9264

EPHEMERIS_TYPE = 0
CLASSIFICATION_TYPE = U
NORAD_CAT_ID   = 67632
ELEMENT_SET_NO = 999
REV_AT_EPOCH   = 464
BSTAR          = .18884E-2
MEAN_MOTION_DOT = .318876E-2
MEAN_MOTION_DDOT = 0

CCSDS_OMM_VERS = 2.0
CREATION_DATE  = 
ORIGINATOR     = 

OBJECT_NAME    = STARLINK-36637
OBJECT_ID      = 2026-020S
CENTER_NAME    = EARTH
REF_FRAME      = TEME
TIME_SYSTEM    = UTC
MEAN_ELEMENT_THEORY = SGP/SGP4

EPOCH          = 2026-02-28T10:01:53.482368
MEAN_MOTION    = 15.76590722
ECCENTRICITY   = .0002099
INCLINATION    = 42.9997
RA_OF_ASC_NODE = 198.4478
ARG_OF_PERICENTER = 270.4838
MEAN_ANOMALY   = 89.5791

EPHEMERIS_TYPE = 0
CLASSIFICATION_TYPE = U
NORAD_CAT_ID   = 67633
ELEMENT_SET_NO = 999
REV_AT_EPOCH   = 462
BSTAR          = .23101E-2
MEAN_MOTION_DOT = .397821E-2
MEAN_MOTION_DDOT = 0

CCSDS_OMM_VERS = 2.0
CREATION_DATE  = 
ORIGINATOR     = 

OBJECT_NAME    = STARLINK-36617
OBJECT_ID      = 2026-020T
CENTER_NAME    = EARTH
REF_FRAME      = TEME
TIME_SYSTEM    = UTC
MEAN_ELEMENT_THEORY = SGP/SGP4

EPOCH          = 2026-02-28T00:00:00.999648
MEAN_MOTION    = 15.76366533
ECCENTRICITY   = .00017903
INCLINATION    = 42.9994
RA_OF_ASC_NODE = 200.3960
ARG_OF_PERICENTER = 260.0392
MEAN_ANOMALY   = 121.5727

EPHEMERIS_TYPE = 0
CLASSIFICATION_TYPE = U
NORAD_CAT_ID   = 67634
ELEMENT_SET_NO = 999
REV_AT_EPOCH   = 583
BSTAR          = .53095638E-4
MEAN_MOTION_DOT = .8167E-4
MEAN_MOTION_DDOT = 0

CCSDS_OMM_VERS = 2.0
CREATION_DATE  = 
ORIGINATOR     = 

OBJECT_NAME    = STARLINK-36627
OBJECT_ID      = 2026-020U
CENTER_NAME    = EARTH
REF_FRAME      = TEME
TIME_SYSTEM    = UTC
MEAN_ELEMENT_THEORY = SGP/SGP4

EPOCH          = 2026-02-28T09:52:25.654656
MEAN_MOTION    = 15.76446717
ECCENTRICITY   = .0000922
INCLINATION    = 42.9960
RA_OF_ASC_NODE = 198.3929
ARG_OF_PERICENTER = 238.8339
MEAN_ANOMALY   = 121.2440

EPHEMERIS_TYPE = 0
CLASSIFICATION_TYPE = U
NORAD_CAT_ID   = 67635
ELEMENT_SET_NO = 999
REV_AT_EPOCH   = 462
BSTAR          = .19229E-2
MEAN_MOTION_DOT = .326161E-2
MEAN_MOTION_DDOT = 0

CCSDS_OMM_VERS = 2.0
CREATION_DATE  = 
ORIGINATOR     = 

OBJECT_NAME    = STARLINK-36624
OBJECT_ID      = 2026-020V
CENTER_NAME    = EARTH
REF_FRAME      = TEME
TIME_SYSTEM    = UTC
MEAN_ELEMENT_THEORY = SGP/SGP4

EPOCH          = 2026-02-28T12:00:00.998784
MEAN_MOTION    = 15.76339775
ECCENTRICITY   = .0001588
INCLINATION    = 42.9993
RA_OF_ASC_NODE = 197.5770
ARG_OF_PERICENTER = 267.9406
MEAN_ANOMALY   = 347.5036

EPHEMERIS_TYPE = 0
CLASSIFICATION_TYPE = U
NORAD_CAT_ID   = 67636
ELEMENT_SET_NO = 999
REV_AT_EPOCH   = 591
BSTAR          = .3709E-3
MEAN_MOTION_DOT = .60269E-3
MEAN_MOTION_DDOT = 0

CCSDS_OMM_VERS = 2.0
CREATION_DATE  = 
ORIGINATOR     = 

OBJECT_NAME    = STARLINK-36610
OBJECT_ID      = 2026-020W
CENTER_NAME    = EARTH
REF_FRAME      = TEME
TIME_SYSTEM    = UTC
MEAN_ELEMENT_THEORY = SGP/SGP4

EPOCH          = 2026-02-28T09:55:35.088384
MEAN_MOTION    = 15.76596394
ECCENTRICITY   = .0001259
INCLINATION    = 42.9981
RA_OF_ASC_NODE = 198.4097
ARG_OF_PERICENTER = 239.1173
MEAN_ANOMALY   = 120.9573

EPHEMERIS_TYPE = 0
CLASSIFICATION_TYPE = U
NORAD_CAT_ID   = 67637
ELEMENT_SET_NO = 999
REV_AT_EPOCH   = 462
BSTAR          = .22898E-2
MEAN_MOTION_DOT = .394258E-2
MEAN_MOTION_DDOT = 0

