STARLINK-36436          
1 67626U 26020K   26059.39389326  .00392209  00000+0  22801-2 0  9991
2 67626  42.9988 198.2512 0003012 254.9112 105.1425 15.76579692  4624
STARLINK-36502          
1 67627U 26020L   26059.50966843  .00302349  00000+0  17931-2 0  9994
2 67627  43.0005 197.3918 0006143 295.3258  64.6975 15.76365404  4640
STARLINK-36532          
1 67628U 26020M   26059.44411818  .00302938  00000+0  17767-2 0  9996
2 67628  42.9998 197.7591 0008620 300.7110  59.2910 15.76593356  4638
STARLINK-36367          
1 67629U 26020N   26059.40484038  .00321801  00000+0  18978-2 0  9992
2 67629  42.9990 198.3406 0001973 252.5073 107.5581 15.76452096  4624
STARLINK-36416          
1 67630U 26020P   26059.42016879  .00338446  00000+0  19907-2 0  9996
2 67630  42.9988 198.4640 0000925 260.4649  99.6116 15.76464790  4626
STARLINK-36527          
1 67631U 26020Q   26059.50001156  .00035767  00000+0  22189-3 0  9995
2 67631  42.9998 197.3273 0001785 255.7489  99.2246 15.76347286  5915
STARLINK-36633          
1 67632U 26020R   26059.51623433  .00318876  00000+0  18884-2 0  9996
2 67632  43.0001 197.4456 0004837 299.1121  60.9264 15.76359623  4645
STARLINK-36637          
1 67633U 26020S   26059.41798012  .00397821  00000+0  23101-2 0  9997
2 67633  42.9997 198.4478 0002099 270.4838  89.5791 15.76590722  4625
STARLINK-36617          
1 67634U 26020T   26059.00001157  .00008167  00000+0  53096-4 0  9990
2 67634  42.9994 200.3960 0001790 260.0392 121.5727 15.76366533  5830
STARLINK-36627          
1 67635U 26020U   26059.41140804  .00326161  00000+0  19229-2 0  9994
2 67635  42.9960 198.3929 0000922 238.8339 121.2440 15.76446717  4623
STARLINK-36624          
1 67636U 26020V   26059.50001156  .00060269  00000+0  37090-3 0  9992
2 67636  42.9993 197.5770 0001588 267.9406 347.5036 15.76339775  5914
STARLINK-36610          
1 67637U 26020W   26059.41360056  .00394258  00000+0  22898-2 0  9997
2 67637  42.9981 198.4097 0001259 239.1173 120.9573 15.76596394  4629
